BEIDOU-3 IGSO-2         
1 44337U 19035A   25319.40858080 -.00000049  00000+0  00000+0 0  9994
2 44337  55.2189 160.7421 0037219 202.2043 318.2327  1.00279963 23524
BEIDOU-3 M24            
1 44542U 19061A   25321.14527353  .00000068  00000+0  00000+0 0  9991
2 44542  54.4002 189.8803 0009481  20.9663 339.1707  1.86229438 41841
BEIDOU-3 M23            
1 44543U 19061B   25322.07769649  .00000076  00000+0  00000+0 0  9990
2 44543  54.3984 189.8171 0006037  17.5205 160.5858  1.86229698 41869
BEIDOU-3 IGSO-3         
1 44709U 19073A   25320.30961679 -.00000215  00000+0  00000+0 0  9994
2 44709  55.1704 283.2020 0044606 191.7526 168.0690  1.00251352 22324
BEIDOU-3 M22            
1 44793U 19078A   25320.98556065 -.00000083  00000+0  00000+0 0  9998
2 44793  54.1319 307.2897 0005308  21.9465 338.0712  1.86232113 40691
BEIDOU-3 M21            
1 44794U 19078B   25321.12264420 -.00000084  00000+0  00000+0 0  9998
2 44794  54.1050 307.2504 0003580   8.1705 351.8298  1.86227811 40706
BEIDOU-3 M19            
1 44864U 19090A   25321.50939800 -.00000065  00000+0  00000+0 0  9992
2 44864  56.3721  69.7981 0016970 284.3972 170.4268  1.86231519 40299
BEIDOU-3 M20            
1 44865U 19090B   25321.34809936 -.00000065  00000+0  00000+0 0  9991
2 44865  56.3736  69.8376 0014104 297.7158 138.5807  1.86231498 40274
BEIDOU-3 G2             
1 45344U 20017A   25322.10785667 -.00000125  00000+0  00000+0 0  9991
2 45344   2.9543  43.2948 0003846 265.5771 227.4231  1.00273144 21140
BEIDOU-3 G3             
1 45807U 20040A   25318.87316801 -.00000348  00000+0  00000+0 0  9997
2 45807   1.9226  66.3317 0004847 303.5120 109.1672  1.00265793 19929
BEIDOU-3 G4             
1 56564U 23066A   25322.19558802 -.00000094  00000+0  00000+0 0  9997
2 56564   0.8705 300.0880 0003823 226.7808 121.0996  1.00272736  9270
BEIDOU-3 M28            
1 58654U 23207A   25320.66405925 -.00000064  00000+0  00000+0 0  9990
2 58654  55.5621  69.4842 0001384 254.7518 105.2155  1.86229774 12889
BEIDOU-3 M26            
1 58655U 23207B   25320.46191436 -.00000063  00000+0  00000+0 0  9997
2 58655  55.5643  69.4772 0002902 242.6635 117.2899  1.86231313 12867
